[{"OBJECT_NAME":"STARLINK-5589","OBJECT_ID":"2023-099G","EPOCH":"2026-03-09T13:11:38.222880","MEAN_MOTION":15.02535677,"ECCENTRICITY":0.00010654,"INCLINATION":43.0027,"RA_OF_ASC_NODE":249.8912,"ARG_OF_PERICENTER":280.1338,"MEAN_ANOMALY":79.9384,"EPHEMERIS_TYPE":0,"CLASSIFICATION_TYPE":"U","NORAD_CAT_ID":57334,"ELEMENT_SET_NO":999,"REV_AT_EPOCH":14609,"BSTAR":9.777834e-5,"MEAN_MOTION_DOT":1.117e-5,"MEAN_MOTION_DDOT":0},{"OBJECT_NAME":"SL-8 DEB","OBJECT_ID":"1981-041D","EPOCH":"2026-03-09T21:47:25.057824","MEAN_MOTION":15.02958497,"ECCENTRICITY":0.00072626,"INCLINATION":74.0316,"RA_OF_ASC_NODE":15.8034,"ARG_OF_PERICENTER":178.7148,"MEAN_ANOMALY":237.7014,"EPHEMERIS_TYPE":0,"CLASSIFICATION_TYPE":"U","NORAD_CAT_ID":14346,"ELEMENT_SET_NO":999,"REV_AT_EPOCH":27979,"BSTAR":0.0011219118,"MEAN_MOTION_DOT":0.00015083,"MEAN_MOTION_DDOT":0}]
